NORAD_CAT_ID,OBJECT_NAME,OBJECT_TYPE,EPOCH,MEAN_MOTION,ECCENTRICITY,INCLINATION,RA_OF_ASC_NODE,ARG_OF_PERICENTER,MEAN_ANOMALY,BSTAR,MEAN_MOTION_DOT,MEAN_MOTION_DDOT,TLE_LINE0,TLE_LINE1,TLE_LINE2,SEMIMAJOR_AXIS,PERIOD,APOGEE,PERIGEE,DECAYED
55937.0,STARLINK-5913,PAYLOAD,2024-08-18 06:12:54,14.98324402,0.0002969,69.9985,277.7182,269.3905,90.6914,-0.00014426,-1.814e-05,0.0,0 STARLINK-5913,1 55937U 23037Z   24231.25896404 -.00001814  00000-0 -14426-3 0  9990,2 55937  69.9985 277.7182 0002969 269.3905  90.6914 14.98324402 78833,6950.21,96.107,574.139,570.012,0.0
55937.0,STARLINK-5913,PAYLOAD,2024-08-18 12:37:26,14.983304,0.0002671,69.9983,277.0448,255.1093,104.977,-0.00017236,-2.149e-05,0.0,0 STARLINK-5913,1 55937U 23037Z   24231.52600104 -.00002149  00000-0 -17236-3 0  9994,2 55937  69.9983 277.0448 0002671 255.1093 104.9770 14.98330400 79217,6950.192,96.107,573.913,570.2,0.0
55937.0,STARLINK-5913,PAYLOAD,2024-08-19 09:27:11,14.98319948,0.0003071,69.9981,274.8558,271.4171,88.6636,0.00017873,2.04e-05,0.0,0 STARLINK-5913,1 55937U 23037Z   24232.39387856  .00002040  00000-0  17873-3 0  9991,2 55937  69.9981 274.8558 0003071 271.4171  88.6636 14.98319948 79005,6950.224,96.108,574.223,569.955,0.0
55937.0,STARLINK-5913,PAYLOAD,2024-08-20 04:40:47,14.98328402,0.0003139,69.9979,272.8356,272.3338,87.7461,9.7663e-05,1.072e-05,0.0,0 STARLINK-5913,1 55937U 23037Z   24233.19499852  .00001072  00000-0  97663-4 0  9990,2 55937  69.9979 272.8356 0003139 272.3338  87.7461 14.98328402 79467,6950.198,96.107,574.244,569.881,0.0
55937.0,STARLINK-5913,PAYLOAD,2024-08-20 12:41:27,14.98331681,0.0003123,69.9979,271.9938,272.2715,87.8086,0.00012298,1.375e-05,0.0,0 STARLINK-5913,1 55937U 23037Z   24233.52879566  .00001375  00000-0  12298-3 0  9997,2 55937  69.9979 271.9938 0003123 272.2715  87.8086 14.98331681 79179,6950.188,96.107,574.223,569.882,0.0
55937.0,STARLINK-5913,PAYLOAD,2024-08-21 04:42:49,14.9832967,0.0002959,69.9984,270.3108,271.7196,88.3624,-1.7661e-05,-3.04e-06,0.0,0 STARLINK-5913,1 55937U 23037Z   24234.19640074 -.00000304  00000-0 -17661-4 0  9994,2 55937  69.9984 270.3108 0002959 271.7196  88.3624 14.98329670 79618,6950.194,96.107,574.115,570.002,0.0
55937.0,STARLINK-5913,PAYLOAD,2024-08-21 12:43:29,14.98328736,0.0002977,69.9984,269.4692,271.8195,88.2623,-2.5582e-05,-3.98e-06,0.0,0 STARLINK-5913,1 55937U 23037Z   24234.53020155 -.00000398  00000-0 -25582-4 0  9998,2 55937  69.9984 269.4692 0002977 271.8195  88.2623 14.98328736 79323,6950.197,96.107,574.131,569.993,0.0
